GLOBALSTAR M075         
1 37192U 10054E   25022.17313034 -.00000072  00000+0  17619-3 0  9991
2 37192  51.9939 266.1194 0000951  72.7980 101.3113 12.62272309657403
GLOBALSTAR M073         
1 37193U 10054F   25022.45571664 -.00000089  00000+0  83336-4 0  9996
2 37193  52.0038 178.9642 0001016  91.6002 286.3057 12.62262683659432
GLOBALSTAR M083         
1 37739U 11033A   25022.48251039 -.00000089  00000+0  80598-4 0  9991
2 37739  51.9855 127.8125 0000643 115.4528 325.1573 12.62270987628454
GLOBALSTAR M088         
1 37740U 11033B   25022.47251296 -.00000091  00000+0  72084-4 0  9991
2 37740  51.9750  33.4565 0000174 113.7674  41.6005 12.62267652623991
GLOBALSTAR M091         
1 37741U 11033C   25022.40876885 -.00000080  00000+0  13045-3 0  9991
2 37741  52.0023 356.9465 0000132   2.3069 162.7006 12.62272955624779
GLOBALSTAR M085         
1 37742U 11033D   25023.18963013 -.00000072  00000+0  17840-3 0  9996
2 37742  51.9885 305.7380 0000492  45.1094 130.0584 12.62264392625871
GLOBALSTAR M081         
1 37743U 11033E   25023.20953771 -.00000088  00000+0  85991-4 0  9990
2 37743  51.9976 308.3725 0000667  38.5321 108.4867 12.62259523625916
GLOBALSTAR M089         
1 37744U 11033F   25023.09199639 -.00000080  00000+0  13065-3 0  9997
2 37744  51.9920 262.9882 0001136  70.6647  80.7918 12.62265474626614
